STARLINK-30929          
1 58386U 23178N   24050.88091713  .00000210  00000+0  25165-4 0  9994
2 58386  53.0608 236.2349 0001407  93.3638 266.7518 15.18713178 15279
STARLINK-30898          
1 58387U 23178P   24051.21529836 -.00006418  00000+0 -29064-3 0  9994
2 58387  53.0593 236.9356 0001860  91.4739 268.6469 15.18703742 15319
STARLINK-30913          
1 58388U 23178Q   24051.49430418  .00000091  00000+0  19478-4 0  9990
2 58388  53.0619 235.8364 0001266  94.4627 265.6512 15.18716553 15359
STARLINK-30938          
1 58389U 23178R   24051.49840159  .00008375  00000+0  41283-3 0  9999
2 58389  53.0611 235.8637 0000624  87.6960 272.4106 15.18752524 15359
STARLINK-30868          
1 58390U 23178S   24050.90108748  .00001862  00000+0  10376-3 0  9990
2 58390  53.0593 238.5420 0001178  70.9306 289.1816 15.18705027 15263
STARLINK-30916          
1 58391U 23178T   24050.89696470  .00004768  00000+0  24178-3 0  9996
2 58391  53.0590 238.5161 0000841  54.5520 305.5553 15.18729812 15264
STARLINK-30937          
1 58392U 23178U   24051.48322375  .00002083  00000+0  11422-3 0  9999
2 58392  53.0622 235.7681 0001109  86.7883 273.3239 15.18718259 15350
STARLINK-30939          
1 58393U 23178V   24050.91121669  .00027838  00000+0  13359-2 0  9995
2 58393  53.0590 238.6153 0001042  75.2744 284.8366 15.18689695 15131
STARLINK-30887          
1 58394U 23178W   24050.78496717  .00002194  00000+0  11955-3 0  9999
2 58394  53.0578 238.5184 0001373  81.6207 278.4943 15.18715099 15232
STARLINK-30934          
1 58395U 23178X   24050.79511122  .00001119  00000+0  68387-4 0  9997
2 58395  53.0695 238.6081 0001265  88.8952 271.2188 15.18716428 15189
STARLINK-30964          
1 58402U 23180A   24051.34311663  .00030933  00000+0  15875-2 0  9997
2 58402  42.9978 162.3907 0000595 253.9297 106.1484 15.15979682 15029
STARLINK-30844          
1 58403U 23180B   24050.59798981  .00019674  00000+0  10167-2 0  9994
2 58403  42.9980 167.1204 0001002 254.8091 105.2646 15.15941272 14788
STARLINK-30876          
1 58404U 23180C   24051.38636485  .00021900  00000+0  11283-2 0  9998
2 58404  42.9995 162.7157 0001595 272.8306  87.2359 15.15995341 15023
STARLINK-30952          
1 58405U 23180D   24051.31821009 -.00005633  00000+0 -27670-3 0  9995
2 58405  42.9999 163.0665 0001672 271.9183  88.1472 15.15956210 14910
STARLINK-30925          
1 58406U 23180E   24051.31594471  .00019448  00000+0  10049-2 0  9994
2 58406  42.9993 163.0508 0000528 238.3777 121.7018 15.15950515 14918
STARLINK-30954          
1 58407U 23180F   24051.34084677  .00017777  00000+0  91944-3 0  9997
2 58407  42.9993 162.3746 0001613 304.3644  55.7051 15.15963426 15029
STARLINK-30906          
1 58408U 23180G   24051.45205283  .00013727  00000+0  10291-2 0  9994
2 58408  42.9977 162.1812 0000510 270.1911  89.8872 15.02540886 14661
STARLINK-30940          
1 58409U 23180H   24051.33360016  .00013944  00000+0  72427-3 0  9999
2 58409  42.9949 159.7525 0000274 175.4141 184.6709 15.15957615 15056
STARLINK-30933          
1 58410U 23180J   24051.44242006  .00022061  00000+0  11232-2 0  9997
2 58410  43.0007 162.2774 0000917 300.0361  60.0395 15.16408582 15035
STARLINK-30919          
1 58411U 23180K   24050.72599332  .00008027  00000+0  60852-3 0  9994
2 58411  42.9975 164.5781 0001455 266.9840  93.0835 15.02538899 14833
STARLINK-30924          
1 58412U 23180L   24051.37372828  .00049318  00000+0  25419-2 0  9993
2 58412  43.0008 161.7556 0001730  31.0388 329.0561 15.15640595 15027
STARLINK-30931          
1 58413U 23180M   24051.45719035  .00077895  00000+0  29547-2 0  9995
2 58413  42.9994 154.6266 0000886 272.6641  87.4108 15.25927504 15127
STARLINK-30922          
1 58414U 23180N   24051.43176916  .00000686  00000+0  46975-4 0  9999
2 58414  43.0006 162.1967 0001272 275.0163  85.0539 15.15955049 15038
STARLINK-30949          
1 58415U 23180P   24050.91667824  .00018340  00000+0  13434-2 0  9993
2 58415  42.9997 164.7819 0001316 280.2018 249.9653 15.03254671 14954
STARLINK-30967          
1 58416U 23180Q   24051.46351630  .00036474  00000+0  18683-2 0  9999
2 58416  42.9998 161.5721 0000909 294.2012  65.8740 15.15980396 15034
STARLINK-30955          
1 58417U 23180R   24051.41355784  .00009065  00000+0  47533-3 0  9992
2 58417  42.9986 162.0465 0000940 267.5174  92.5566 15.15957442 15028
STARLINK-30895          
1 58418U 23180S   24051.35905758  .00028786  00000+0  14791-2 0  9998
2 58418  42.9990 162.5112 0001570 280.0233  80.0437 15.15967313 14918
STARLINK-30917          
1 58419U 23180T   24050.73401010  .00003945  00000+0  30685-3 0  9993
2 58419  42.9986 165.4777 0000928 258.3706 101.7032 15.02542180 14922
STARLINK-30899          
1 58420U 23180U   24051.28861239  .00029308  00000+0  15055-2 0  9993
2 58420  42.9967 162.8409 0000414 242.1089 117.9716 15.15969498 14917
STARLINK-30902          
1 58421U 23180V   24050.74328976  .00006252  00000+0  33159-3 0  9999
2 58421  42.9987 165.6276 0000938 274.7383  85.3357 15.15959193 14811
STARLINK-30912          
1 58422U 23180W   24051.48172485  .00044794  00000+0  22889-2 0  9994
2 58422  42.9991 161.7093 0001090 271.8810  88.1912 15.15983575 15285
STARLINK-30900          
1 58423U 23180X   24051.34100340  .00004144  00000+0  31487-3 0  9991
2 58423  42.9986 162.3306 0001721 286.6294  73.4359 15.03349570 14925
STARLINK-30908          
1 58424U 23180Y   24051.32096801  .00003993  00000+0  31047-3 0  9999
2 58424  42.9956 161.2838 0001294 260.7440  99.3256 15.02540066 15029
STARLINK-30869          
1 58437U 23183A   24051.48554570  .00016889  00000+0  12621-2 0  9999
2 58437  42.9983 148.9681 0001188 274.1572  85.9134 15.02541404 14187
STARLINK-30969          
1 58438U 23183B   24051.48892675 -.00429765  00000+0 -34213-1 0  9994
2 58438  42.9984 148.9921 0000988 180.3041 179.7801 15.02071615 14187
STARLINK-30951          
1 58439U 23183C   24051.48221540  .00016744  00000+0  12514-2 0  9990
2 58439  42.9982 148.9422 0001030 258.4512 101.6214 15.02542077 14188
STARLINK-30950          
1 58440U 23183D   24051.25001157  .00032730  00000+0  71635-3 0  9990
2 58440  43.0000 121.8782 0002073 228.2101 167.5753 15.43531025 14476
STARLINK-30942          
1 58441U 23183E   24051.53204647  .00020530  00000+0  15300-2 0  9992
2 58441  42.9982 148.4595 0001110 277.5289  82.5427 15.02546104 14198
STARLINK-30959          
1 58442U 23183F   24051.45890763  .00029242  00000+0  21697-2 0  9999
2 58442  42.9998 148.7720 0001144 281.6425  78.4289 15.02553857 14186
STARLINK-30971          
1 58443U 23183G   24051.53537621  .00003327  00000+0  26114-3 0  9996
2 58443  42.9992 148.4754 0000928 295.2598  64.8148 15.02544281 14191
STARLINK-30963          
1 58444U 23183H   24051.32261980  .00003742  00000+0  29195-3 0  9999
2 58444  42.9977 149.4609 0001384 270.5767  89.4917 15.02535263 14160
STARLINK-30961          
1 58445U 23183J   24051.45224702  .00004671  00000+0  36057-3 0  9992
2 58445  42.9995 148.7138 0001119 286.0546  74.0173 15.02539206 14180
STARLINK-30975          
1 58446U 23183K   24051.30053545  .00014761  00000+0  11051-2 0  9999
2 58446  43.0000 150.1390 0001218 269.5621  90.5082 15.02548565 14154
STARLINK-30976          
1 58447U 23183L   24051.44225967  .00001698  00000+0  14075-3 0  9999
2 58447  42.9998 148.6742 0001118 269.8393  90.2321 15.02539871 14186
STARLINK-30926          
1 58448U 23183M   24051.30597140  .00013187  00000+0  98946-3 0  9995
2 58448  42.9990 149.3017 0001021 281.7072  78.3655 15.02533807 14159
STARLINK-30943          
1 58449U 23183N   24051.47783275  .00000600  00000+0  32759-4 0  9997
2 58449  43.0024 125.4195 0000915 288.4884  71.5867 15.25914019 14443
STARLINK-30946          
1 58450U 23183P   24051.29277045  .00003320  00000+0  26070-3 0  9992
2 58450  42.9964 150.0977 0001263 252.6880 107.3824 15.02533625 14169
STARLINK-30944          
1 58451U 23183Q   24051.31596683  .00007683  00000+0  58326-3 0  9993
2 58451  42.9985 149.4200 0000781 269.6012  90.4741 15.02530135 14032
STARLINK-30928          
1 58452U 23183R   24051.31263323  .00011945  00000+0  89768-3 0  9996
2 58452  42.9977 149.3926 0000728 254.7801 105.2961 15.02540673 14161
STARLINK-30957          
1 58453U 23183S   24051.29943210  .00000144  00000+0  25734-4 0  9997
2 58453  42.9975 150.1477 0001062 248.1066 111.9664 15.02529987 14162
STARLINK-30966          
1 58454U 23183T   24050.69779612  .00007636  00000+0  57971-3 0  9994
2 58454  42.9987 153.3705 0001221 268.4401  91.6302 15.02538752 14040
STARLINK-30935          
1 58455U 23183U   24051.34260122  .00013216  00000+0  99126-3 0  9998
2 58455  42.9975 149.6071 0001368 288.2817  71.7876 15.02547330 14165
STARLINK-30960          
1 58456U 23183V   24051.27945432  .00013078  00000+0  98115-3 0  9998
2 58456  42.9964 149.9983 0000737 316.0476  44.0308 15.02543781 14157
STARLINK-30958          
1 58457U 23183W   24051.52649245  .00015765  00000+0  11791-2 0  9999
2 58457  42.9980 148.4071 0001282 270.6443  89.4252 15.02546760 14075
STARLINK-30962          
1 58458U 23183X   24050.63786189  .00002399  00000+0  19256-3 0  9994
2 58458  42.9969 152.9268 0000999 261.5900  98.4829 15.02534957 14044
STARLINK-30977          
1 58459U 23183Y   24051.33927243  .00027092  00000+0  20123-2 0  9992
2 58459  42.9997 149.5844 0001025 252.9742 107.0988 15.02546775 13950
STARLINK-30947          
1 58473U 23186A   24051.25001157  .00060292  00000+0  42156-2 0  9998
2 58473  42.9994 174.6654 0001242 275.2726  33.3173 15.04485346 13216
STARLINK-30995          
1 58474U 23186B   24051.00002315  .00042339  00000+0  16480-2 0  9992
2 58474  43.0009 175.4488 0002202 281.5052 356.7358 15.25320765 13188
STARLINK-30941          
1 58475U 23186C   24050.91667824  .00028988  00000+0  20455-2 0  9995
2 58475  43.0001 176.3438 0001319 234.8145 124.6177 15.04447495 13120
